start=new Date('2022-05-19T00:00:00.000Z').valueOf();
sats=[{"REF_FRAME":"TEME","MEAN_MOTION_DOT":"-0.00000696","EPHEMERIS_TYPE":"0","FILE":"3452356","GP_ID":"203905124","RA_OF_ASC_NODE":"126.1761","REV_AT_EPOCH":"7141","OBJECT_ID":"2021-009BD","LAUNCH_DATE":"2021-02-04","MEAN_ELEMENT_THEORY":"SGP4","TLE_LINE2":"2 47599  53.0537 126.1761 0002143  52.0151 308.1032 15.06405332 71416","OBJECT_TYPE":"PAYLOAD","SITE":"AFETR","TLE_LINE1":"1 47599U 21009BD  22138.66508311 -.00000696  00000-0 -27822-4 0  9990","EPOCH":"2022-05-18T15:57:43.180704","PERIAPSIS":"545.713","DECAY_DATE":null,"APOAPSIS":"548.681","ECCENTRICITY":"0.00021430","MEAN_ANOMALY":"308.1032","CLASSIFICATION_TYPE":"U","COUNTRY_CODE":"US","PERIOD":"95.592","CENTER_NAME":"EARTH","NORAD_CAT_ID":"47599","RCS_SIZE":"LARGE","OBJECT_NAME":"STARLINK-2004","MEAN_MOTION_DDOT":"0.0000000000000","BSTAR":"-0.00002782200000","ELEMENT_SET_NO":"999","ARG_OF_PERICENTER":"52.0151","INCLINATION":"53.0537","TIME_SYSTEM":"UTC","MEAN_MOTION":"15.06405332","SEMIMAJOR_AXIS":"6925.332"},{"TLE_LINE2":"2 47600  53.0537 126.0314 0002198  58.9159 301.2046 15.07112457 71429","MEAN_ELEMENT_THEORY":"SGP4","OBJECT_TYPE":"PAYLOAD","TLE_LINE1":"1 47600U 21009BE  22138.69114586 -.00013292  00000-0 -85823-3 0  9993","EPOCH":"2022-05-18T16:35:15.002304","SITE":"AFETR","APOAPSIS":"546.553","PERIAPSIS":"543.509","DECAY_DATE":null,"FILE":"3452356","EPHEMERIS_TYPE":"0","MEAN_MOTION_DOT":"-0.00013292","REF_FRAME":"TEME","REV_AT_EPOCH":"7142","RA_OF_ASC_NODE":"126.0314","GP_ID":"203905375","LAUNCH_DATE":"2021-02-04","OBJECT_ID":"2021-009BE","OBJECT_NAME":"STARLINK-2005","BSTAR":"-0.00085823000000","MEAN_MOTION_DDOT":"0.0000000000000","TIME_SYSTEM":"UTC","ELEMENT_SET_NO":"999","INCLINATION":"53.0537","ARG_OF_PERICENTER":"58.9159","SEMIMAJOR_AXIS":"6923.166","MEAN_MOTION":"15.07112457","MEAN_ANOMALY":"301.2046","ECCENTRICITY":"0.00021980","PERIOD":"95.547","CENTER_NAME":"EARTH","COUNTRY_CODE":"US","CLASSIFICATION_TYPE":"U","RCS_SIZE":"LARGE","NORAD_CAT_ID":"47600"},{"REF_FRAME":"TEME","MEAN_MOTION_DOT":"0.00001844","EPHEMERIS_TYPE":"0","FILE":"3452356","OBJECT_ID":"2021-009BF","LAUNCH_DATE":"2021-02-04","REV_AT_EPOCH":"7141","GP_ID":"203904124","RA_OF_ASC_NODE":"126.1656","OBJECT_TYPE":"PAYLOAD","MEAN_ELEMENT_THEORY":"SGP4","TLE_LINE2":"2 47601  53.0549 126.1656 0002086  53.2053 306.9127 15.06410731 71416","PERIAPSIS":"545.736","DECAY_DATE":null,"APOAPSIS":"548.625","SITE":"AFETR","TLE_LINE1":"1 47601U 21009BF  22138.66877424  .00001844  00000-0  14266-3 0  9999","EPOCH":"2022-05-18T16:03:02.094336","COUNTRY_CODE":"US","CLASSIFICATION_TYPE":"U","PERIOD":"95.591","CENTER_NAME":"EARTH","MEAN_ANOMALY":"306.9127","ECCENTRICITY":"0.00020860","RCS_SIZE":"LARGE","NORAD_CAT_ID":"47601","MEAN_MOTION_DDOT":"0.0000000000000","BSTAR":"0.00014266000000","OBJECT_NAME":"STARLINK-2006","SEMIMAJOR_AXIS":"6925.316","MEAN_MOTION":"15.06410731","TIME_SYSTEM":"UTC","ELEMENT_SET_NO":"999","ARG_OF_PERICENTER":"53.2053","INCLINATION":"53.0549"},{"DECAY_DATE":null,"PERIAPSIS":"545.847","APOAPSIS":"548.639","SITE":"AFETR","TLE_LINE1":"1 47602U 21009BG  22138.68997605  .00001134  00000-0  95020-4 0  9996","EPOCH":"2022-05-18T16:33:33.930720","OBJECT_TYPE":"PAYLOAD","MEAN_ELEMENT_THEORY":"SGP4","TLE_LINE2":"2 47602  53.0546 136.0657 0002016  47.7489 312.3670 15.06390370 71273","OBJECT_ID":"2021-009BG","LAUNCH_DATE":"2021-02-04","REV_AT_EPOCH":"7127","RA_OF_ASC_NODE":"136.0657","GP_ID":"203904374","REF_FRAME":"TEME","MEAN_MOTION_DOT":"0.00001134","FILE":"3452356","EPHEMERIS_TYPE":"0","SEMIMAJOR_AXIS":"6925.378","MEAN_MOTION":"15.06390370","TIME_SYSTEM":"UTC","ELEMENT_SET_NO":"999","ARG_OF_PERICENTER":"47.7489","INCLINATION":"53.0546","MEAN_MOTION_DDOT":"0.0000000000000","BSTAR":"0.00009502000000","OBJECT_NAME":"STARLINK-2007","RCS_SIZE":"LARGE","NORAD_CAT_ID":"47602","COUNTRY_CODE":"US","CLASSIFICATION_TYPE":"U","CENTER_NAME":"EARTH","PERIOD":"95.593","MEAN_ANOMALY":"312.3670","ECCENTRICITY":"0.00020160"},{"OBJECT_TYPE":"PAYLOAD","MEAN_ELEMENT_THEORY":"SGP4","TLE_LINE2":"2 47603  53.0555 165.7083 0002168  41.9288 318.1866 15.06398194 70864","APOAPSIS":"548.721","DECAY_DATE":null,"PERIAPSIS":"545.718","EPOCH":"2022-05-18T18:26:20.593824","TLE_LINE1":"1 47603U 21009BH  22138.76829391  .00001308  00000-0  10668-3 0  9999","SITE":"AFETR","FILE":"3452356","EPHEMERIS_TYPE":"0","MEAN_MOTION_DOT":"0.00001308","REF_FRAME":"TEME","LAUNCH_DATE":"2021-02-04","OBJECT_ID":"2021-009BH","GP_ID":"203905624","RA_OF_ASC_NODE":"165.7083","REV_AT_EPOCH":"7086","BSTAR":"0.00010668000000","MEAN_MOTION_DDOT":"0.0000000000000","OBJECT_NAME":"STARLINK-2008","MEAN_MOTION":"15.06398194","SEMIMAJOR_AXIS":"6925.354","ELEMENT_SET_NO":"999","INCLINATION":"53.0555","ARG_OF_PERICENTER":"41.9288","TIME_SYSTEM":"UTC","CENTER_NAME":"EARTH","PERIOD":"95.592","CLASSIFICATION_TYPE":"U","COUNTRY_CODE":"US","ECCENTRICITY":"0.00021680","MEAN_ANOMALY":"318.1866","NORAD_CAT_ID":"47603","RCS_SIZE":"LARGE"},{"CLASSIFICATION_TYPE":"U","COUNTRY_CODE":"US","CENTER_NAME":"EARTH","PERIOD":"95.592","ECCENTRICITY":"0.00019820","MEAN_ANOMALY":"318.9573","NORAD_CAT_ID":"47604","RCS_SIZE":"LARGE","MEAN_MOTION_DDOT":"0.0000000000000","BSTAR":"0.00004925700000","OBJECT_NAME":"STARLINK-2021","MEAN_MOTION":"15.06405781","SEMIMAJOR_AXIS":"6925.331","ARG_OF_PERICENTER":"41.1565","ELEMENT_SET_NO":"999","INCLINATION":"53.0540","TIME_SYSTEM":"UTC","MEAN_MOTION_DOT":"0.00000452","REF_FRAME":"TEME","FILE":"3452356","EPHEMERIS_TYPE":"0","OBJECT_ID":"2021-009BJ","LAUNCH_DATE":"2021-02-04","RA_OF_ASC_NODE":"136.0220","GP_ID":"203905875","REV_AT_EPOCH":"7128","OBJECT_TYPE":"PAYLOAD","MEAN_ELEMENT_THEORY":"SGP4","TLE_LINE2":"2 47604  53.0540 136.0220 0001982  41.1565 318.9573 15.06405781 71287","DECAY_DATE":null,"PERIAPSIS":"545.823","APOAPSIS":"548.568","SITE":"AFETR","TLE_LINE1":"1 47604U 21009BJ  22138.69733786  .00000452  00000-0  49257-4 0  9990","EPOCH":"2022-05-18T16:44:09.991104"},{"SITE":"AFETR","TLE_LINE1":"1 47605U 21009BK  22138.07214808  .00306877  00000-0  11232-2 0  9992","EPOCH":"2022-05-18T01:43:53.594112","DECAY_DATE":null,"PERIAPSIS":"307.633","APOAPSIS":"313.690","MEAN_ELEMENT_THEORY":"SGP4","TLE_LINE2":"2 47605  53.0471  68.6406 0004528 115.5283 244.6209 15.87014014 72162","OBJECT_TYPE":"PAYLOAD","RA_OF_ASC_NODE":"68.6406","GP_ID":"203872702","REV_AT_EPOCH":"7216","OBJECT_ID":"2021-009BK","LAUNCH_DATE":"2021-02-04","REF_FRAME":"TEME","MEAN_MOTION_DOT":"0.00306877","FILE":"3451871","EPHEMERIS_TYPE":"0","ARG_OF_PERICENTER":"115.5283","ELEMENT_SET_NO":"999","INCLINATION":"53.0471","TIME_SYSTEM":"UTC","MEAN_MOTION":"15.87014014","SEMIMAJOR_AXIS":"6688.797","OBJECT_NAME":"STARLINK-2023","MEAN_MOTION_DDOT":"0.0000000000000","BSTAR":"0.00112320000000","NORAD_CAT_ID":"47605","RCS_SIZE":"LARGE","ECCENTRICITY":"0.00045280","MEAN_ANOMALY":"244.6209","CLASSIFICATION_TYPE":"U","COUNTRY_CODE":"US","PERIOD":"90.736","CENTER_NAME":"EARTH"},{"GP_ID":"203904873","RA_OF_ASC_NODE":"136.0211","REV_AT_EPOCH":"7128","LAUNCH_DATE":"2021-02-04","OBJECT_ID":"2021-009BL","FILE":"3452356","EPHEMERIS_TYPE":"0","MEAN_MOTION_DOT":"0.00000882","REF_FRAME":"TEME","EPOCH":"2022-05-18T16:49:28.924608","TLE_LINE1":"1 47606U 21009BL  22138.70102922  .00000882  00000-0  78134-4 0  9999","SITE":"AFETR","APOAPSIS":"548.528","DECAY_DATE":null,"PERIAPSIS":"545.906","MEAN_ELEMENT_THEORY":"SGP4","TLE_LINE2":"2 47606  53.0547 136.0211 0001893  52.8508 307.2654 15.06399010 71281","OBJECT_TYPE":"PAYLOAD","NORAD_CAT_ID":"47606","RCS_SIZE":"LARGE","ECCENTRICITY":"0.00018930","MEAN_ANOMALY":"307.2654","CENTER_NAME":"EARTH","PERIOD":"95.592","CLASSIFICATION_TYPE":"U","COUNTRY_CODE":"US","ARG_OF_PERICENTER":"52.8508","ELEMENT_SET_NO":"999","INCLINATION":"53.0547","TIME_SYSTEM":"UTC","MEAN_MOTION":"15.06399010","SEMIMAJOR_AXIS":"6925.352","OBJECT_NAME":"STARLINK-2024","BSTAR":"0.00007813400000","MEAN_MOTION_DDOT":"0.0000000000000"},{"EPOCH":"2022-05-18T09:55:29.152704","TLE_LINE1":"1 47607U 21009BM  22138.41353186 -.00002137  00000-0 -12459-3 0  9992","SITE":"AFETR","APOAPSIS":"549.013","DECAY_DATE":null,"PERIAPSIS":"545.464","MEAN_ELEMENT_THEORY":"SGP4","TLE_LINE2":"2 47607  53.0548 137.3019 0002562  36.8173 323.2992 15.06391918 71234","OBJECT_TYPE":"PAYLOAD","REV_AT_EPOCH":"7123","GP_ID":"203871700","RA_OF_ASC_NODE":"137.3019","LAUNCH_DATE":"2021-02-04","OBJECT_ID":"2021-009BM","EPHEMERIS_TYPE":"0","FILE":"3451871","MEAN_MOTION_DOT":"-0.00002137","REF_FRAME":"TEME","TIME_SYSTEM":"UTC","INCLINATION":"53.0548","ELEMENT_SET_NO":"999","ARG_OF_PERICENTER":"36.8173","SEMIMAJOR_AXIS":"6925.373","MEAN_MOTION":"15.06391918","OBJECT_NAME":"STARLINK-2025","BSTAR":"-0.00012459000000","MEAN_MOTION_DDOT":"0.0000000000000","RCS_SIZE":"LARGE","NORAD_CAT_ID":"47607","MEAN_ANOMALY":"323.2992","ECCENTRICITY":"0.00025620","CENTER_NAME":"EARTH","PERIOD":"95.593","COUNTRY_CODE":"US","CLASSIFICATION_TYPE":"U"},{"OBJECT_NAME":"STARLINK-1528","BSTAR":"0.00020656000000","MEAN_MOTION_DDOT":"0.0000000000000","ELEMENT_SET_NO":"999","ARG_OF_PERICENTER":"57.0022","INCLINATION":"53.0535","TIME_SYSTEM":"UTC","MEAN_MOTION":"15.06406383","SEMIMAJOR_AXIS":"6925.329","ECCENTRICITY":"0.00016940","MEAN_ANOMALY":"303.1130","PERIOD":"95.592","CENTER_NAME":"EARTH","CLASSIFICATION_TYPE":"U","COUNTRY_CODE":"US","NORAD_CAT_ID":"47620","RCS_SIZE":"LARGE","MEAN_ELEMENT_THEORY":"SGP4","TLE_LINE2":"2 47620  53.0535 197.2234 0001694  57.0022 303.1130 15.06406383 70280","OBJECT_TYPE":"PAYLOAD","TLE_LINE1":"1 47620U 21012A   22138.43010398  .00002797  00000-0  20656-3 0  9996","EPOCH":"2022-05-18T10:19:20.983872","SITE":"AFETR","APOAPSIS":"548.367","PERIAPSIS":"546.021","DECAY_DATE":null,"FILE":"3451871","EPHEMERIS_TYPE":"0","MEAN_MOTION_DOT":"0.00002797","REF_FRAME":"TEME","RA_OF_ASC_NODE":"197.2234","GP_ID":"203872703","REV_AT_EPOCH":"7028","LAUNCH_DATE":"2021-02-16","OBJECT_ID":"2021-012A"}];
